{
  "norad_id": 66447,
  "name": "STARLINK-34851",
  "history": [
    {
      "epoch": "2026-03-28T12:04:10.804512",
      "apogee_km": 484.0571142931476,
      "perigee_km": 481.781987940798,
      "latitude_deg": -3.3256222765799666,
      "longitude_deg": 152.97867167997174,
      "semi_major_axis_km": 6861.0565511169725,
      "eccentricity": 0.0001658,
      "inclination_deg": 43.0,
      "raan_deg": 168.5142,
      "arg_perigee_deg": 115.806,
      "mean_anomaly_deg": 244.2963,
      "mean_motion_rev_day": 15.27623264
    }
  ]
}